2025-274N               
1 66662U 25274N   25354.77812275  .00001203  00000+0  12049-3 0  9998
2 66662  97.7406 281.8732 0013684 252.2690 107.7037 14.93190655  3607
KSLV-II R/B             
1 66663U 25274P   25354.77729046  .00010185  00000+0  85036-3 0  9997
2 66663  97.7441 282.0453 0056937 291.1678  68.3465 14.97471728  3611
SOYUZ-MS 28             
1 66664U 25275A   25354.66673768  .00007293  00000+0  13711-3 0  9993
2 66664  51.6321 103.2234 0003163 277.4707  82.5922 15.49686708  1283
FORMOSAT-8A             
1 66666U 25276A   25354.16478854  .00003267  00000+0  26516-3 0  9994
2 66666  97.6583  66.0010 0003663 201.3958 158.7113 15.00328968  3202
PELICAN-5               
1 66667U 25276B   25354.64841197  .00004806  00000+0  24254-3 0  9999
2 66667  97.4422  66.2866 0001954 224.7172 135.3904 15.17584497  3323
TRANSPORTER-15 C        
1 66668U 25276C   25354.92612714  .00013648  00000+0  69125-3 0  9992
2 66668  97.4287  66.4889 0007664 274.4536  85.5822 15.17079150  3364
TRANSPORTER-15 D        
1 66669U 25276D   25354.13124433  .06545393  00000+0  21715+0 0  9994
2 66669  97.4323  65.7247 0048307 228.3761 131.3335 15.25643349  3245
TRANSPORTER-15 E        
1 66670U 25276E   25354.66110865  .00013864  00000+0  70104-3 0  9995
2 66670  97.4309  66.2389 0007102 279.7780  80.2651 15.17139026  3328
TRANSPORTER-15 F        
1 66671U 25276F   25354.65889829  .00008274  00000+0  42114-3 0  9997
2 66671  97.4432  66.2732 0004993 261.2585  98.8083 15.17059148  3322
TRANSPORTER-15 G        
1 66672U 25276G   25354.92693909  .00007528  00000+0  38837-3 0  9998
2 66672  97.4402  66.5193 0005317 258.7365 101.3270 15.16610454  3366
TRANSPORTER-15 H        
1 66673U 25276H   25354.92373202  .00007024  00000+0  35791-3 0  9997
2 66673  97.4371  66.5141 0005783 277.1860  82.8716 15.17067468  3367
TRANSPORTER-15 J        
1 66674U 25276J   25354.66143283  .00004968  00000+0  25674-3 0  9996
2 66674  97.4381  66.2572 0004919 264.8158  95.2514 15.16718847  3320
