CCSDS_OMM_VERS = 2.0
CREATION_DATE  = 
ORIGINATOR     = 

OBJECT_NAME    = 2025-274N
OBJECT_ID      = 2025-274N
CENTER_NAME    = EARTH
REF_FRAME      = TEME
TIME_SYSTEM    = UTC
MEAN_ELEMENT_THEORY = SGP/SGP4

EPOCH          = 2025-12-20T18:40:29.805600
MEAN_MOTION    = 14.93190655
ECCENTRICITY   = .00136843
INCLINATION    = 97.7406
RA_OF_ASC_NODE = 281.8732
ARG_OF_PERICENTER = 252.2690
MEAN_ANOMALY   = 107.7037

EPHEMERIS_TYPE = 0
CLASSIFICATION_TYPE = U
NORAD_CAT_ID   = 66662
ELEMENT_SET_NO = 999
REV_AT_EPOCH   = 360
BSTAR          = .12048909E-3
MEAN_MOTION_DOT = .1203E-4
MEAN_MOTION_DDOT = 0

CCSDS_OMM_VERS = 2.0
CREATION_DATE  = 
ORIGINATOR     = 

OBJECT_NAME    = KSLV-II R/B
OBJECT_ID      = 2025-274P
CENTER_NAME    = EARTH
REF_FRAME      = TEME
TIME_SYSTEM    = UTC
MEAN_ELEMENT_THEORY = SGP/SGP4

EPOCH          = 2025-12-20T18:39:17.895744
MEAN_MOTION    = 14.97471728
ECCENTRICITY   = .00569376
INCLINATION    = 97.7441
RA_OF_ASC_NODE = 282.0453
ARG_OF_PERICENTER = 291.1678
MEAN_ANOMALY   = 68.3465

EPHEMERIS_TYPE = 0
CLASSIFICATION_TYPE = U
NORAD_CAT_ID   = 66663
ELEMENT_SET_NO = 999
REV_AT_EPOCH   = 361
BSTAR          = .85036382E-3
MEAN_MOTION_DOT = .10185E-3
MEAN_MOTION_DDOT = 0

CCSDS_OMM_VERS = 2.0
CREATION_DATE  = 
ORIGINATOR     = 

OBJECT_NAME    = SOYUZ-MS 28
OBJECT_ID      = 2025-275A
CENTER_NAME    = EARTH
REF_FRAME      = TEME
TIME_SYSTEM    = UTC
MEAN_ELEMENT_THEORY = SGP/SGP4

EPOCH          = 2025-12-20T16:00:06.135552
MEAN_MOTION    = 15.49686708
ECCENTRICITY   = .00031636
INCLINATION    = 51.6321
RA_OF_ASC_NODE = 103.2234
ARG_OF_PERICENTER = 277.4707
MEAN_ANOMALY   = 82.5922

EPHEMERIS_TYPE = 0
CLASSIFICATION_TYPE = U
NORAD_CAT_ID   = 66664
ELEMENT_SET_NO = 999
REV_AT_EPOCH   = 128
BSTAR          = .13711052E-3
MEAN_MOTION_DOT = .7293E-4
MEAN_MOTION_DDOT = 0

CCSDS_OMM_VERS = 2.0
CREATION_DATE  = 
ORIGINATOR     = 

OBJECT_NAME    = FORMOSAT-8A
OBJECT_ID      = 2025-276A
CENTER_NAME    = EARTH
REF_FRAME      = TEME
TIME_SYSTEM    = UTC
MEAN_ELEMENT_THEORY = SGP/SGP4

EPOCH          = 2025-12-20T03:57:17.729856
MEAN_MOTION    = 15.00328968
ECCENTRICITY   = .00036632
INCLINATION    = 97.6583
RA_OF_ASC_NODE = 66.0010
ARG_OF_PERICENTER = 201.3958
MEAN_ANOMALY   = 158.7113

EPHEMERIS_TYPE = 0
CLASSIFICATION_TYPE = U
NORAD_CAT_ID   = 66666
ELEMENT_SET_NO = 999
REV_AT_EPOCH   = 320
BSTAR          = .26516383E-3
MEAN_MOTION_DOT = .3267E-4
MEAN_MOTION_DDOT = 0

CCSDS_OMM_VERS = 2.0
CREATION_DATE  = 
ORIGINATOR     = 

OBJECT_NAME    = PELICAN-5
OBJECT_ID      = 2025-276B
CENTER_NAME    = EARTH
REF_FRAME      = TEME
TIME_SYSTEM    = UTC
MEAN_ELEMENT_THEORY = SGP/SGP4

EPOCH          = 2025-12-20T15:33:42.794208
MEAN_MOTION    = 15.17584497
ECCENTRICITY   = .00019544
INCLINATION    = 97.4422
RA_OF_ASC_NODE = 66.2866
ARG_OF_PERICENTER = 224.7172
MEAN_ANOMALY   = 135.3904

EPHEMERIS_TYPE = 0
CLASSIFICATION_TYPE = U
NORAD_CAT_ID   = 66667
ELEMENT_SET_NO = 999
REV_AT_EPOCH   = 332
BSTAR          = .24254021E-3
MEAN_MOTION_DOT = .4806E-4
MEAN_MOTION_DDOT = 0

CCSDS_OMM_VERS = 2.0
CREATION_DATE  = 
ORIGINATOR     = 

OBJECT_NAME    = TRANSPORTER-15 C
OBJECT_ID      = 2025-276C
CENTER_NAME    = EARTH
REF_FRAME      = TEME
TIME_SYSTEM    = UTC
MEAN_ELEMENT_THEORY = SGP/SGP4

EPOCH          = 2025-12-20T22:13:37.384896
MEAN_MOTION    = 15.17079150
ECCENTRICITY   = .00076649
INCLINATION    = 97.4287
RA_OF_ASC_NODE = 66.4889
ARG_OF_PERICENTER = 274.4536
MEAN_ANOMALY   = 85.5822

EPHEMERIS_TYPE = 0
CLASSIFICATION_TYPE = U
NORAD_CAT_ID   = 66668
ELEMENT_SET_NO = 999
REV_AT_EPOCH   = 336
BSTAR          = .69124984E-3
MEAN_MOTION_DOT = .13648E-3
MEAN_MOTION_DDOT = 0

CCSDS_OMM_VERS = 2.0
CREATION_DATE  = 
ORIGINATOR     = 

OBJECT_NAME    = TRANSPORTER-15 D
OBJECT_ID      = 2025-276D
CENTER_NAME    = EARTH
REF_FRAME      = TEME
TIME_SYSTEM    = UTC
MEAN_ELEMENT_THEORY = SGP/SGP4

EPOCH          = 2025-12-20T03:08:59.510112
MEAN_MOTION    = 15.25643349
ECCENTRICITY   = .00483079
INCLINATION    = 97.4323
RA_OF_ASC_NODE = 65.7247
ARG_OF_PERICENTER = 228.3761
MEAN_ANOMALY   = 131.3335

EPHEMERIS_TYPE = 0
CLASSIFICATION_TYPE = U
NORAD_CAT_ID   = 66669
ELEMENT_SET_NO = 999
REV_AT_EPOCH   = 324
BSTAR          = .21715082E+0
MEAN_MOTION_DOT = .6545393E-1
MEAN_MOTION_DDOT = 0

CCSDS_OMM_VERS = 2.0
CREATION_DATE  = 
ORIGINATOR     = 

OBJECT_NAME    = TRANSPORTER-15 E
OBJECT_ID      = 2025-276E
CENTER_NAME    = EARTH
REF_FRAME      = TEME
TIME_SYSTEM    = UTC
MEAN_ELEMENT_THEORY = SGP/SGP4

EPOCH          = 2025-12-20T15:51:59.787360
MEAN_MOTION    = 15.17139026
ECCENTRICITY   = .00071025
INCLINATION    = 97.4309
RA_OF_ASC_NODE = 66.2389
ARG_OF_PERICENTER = 279.7780
MEAN_ANOMALY   = 80.2651

EPHEMERIS_TYPE = 0
CLASSIFICATION_TYPE = U
NORAD_CAT_ID   = 66670
ELEMENT_SET_NO = 999
REV_AT_EPOCH   = 332
BSTAR          = .70103605E-3
MEAN_MOTION_DOT = .13864E-3
MEAN_MOTION_DDOT = 0

CCSDS_OMM_VERS = 2.0
CREATION_DATE  = 
ORIGINATOR     = 

OBJECT_NAME    = TRANSPORTER-15 F
OBJECT_ID      = 2025-276F
CENTER_NAME    = EARTH
REF_FRAME      = TEME
TIME_SYSTEM    = UTC
MEAN_ELEMENT_THEORY = SGP/SGP4

EPOCH          = 2025-12-20T15:48:48.812256
MEAN_MOTION    = 15.17059148
ECCENTRICITY   = .00049931
INCLINATION    = 97.4432
RA_OF_ASC_NODE = 66.2732
ARG_OF_PERICENTER = 261.2585
MEAN_ANOMALY   = 98.8083

EPHEMERIS_TYPE = 0
CLASSIFICATION_TYPE = U
NORAD_CAT_ID   = 66671
ELEMENT_SET_NO = 999
REV_AT_EPOCH   = 332
BSTAR          = .42113504E-3
MEAN_MOTION_DOT = .8274E-4
MEAN_MOTION_DDOT = 0

CCSDS_OMM_VERS = 2.0
CREATION_DATE  = 
ORIGINATOR     = 

OBJECT_NAME    = TRANSPORTER-15 G
OBJECT_ID      = 2025-276G
CENTER_NAME    = EARTH
REF_FRAME      = TEME
TIME_SYSTEM    = UTC
MEAN_ELEMENT_THEORY = SGP/SGP4

EPOCH          = 2025-12-20T22:14:47.537376
MEAN_MOTION    = 15.16610454
ECCENTRICITY   = .00053171
INCLINATION    = 97.4402
RA_OF_ASC_NODE = 66.5193
ARG_OF_PERICENTER = 258.7365
MEAN_ANOMALY   = 101.3270

EPHEMERIS_TYPE = 0
CLASSIFICATION_TYPE = U
NORAD_CAT_ID   = 66672
ELEMENT_SET_NO = 999
REV_AT_EPOCH   = 336
BSTAR          = .38837072E-3
MEAN_MOTION_DOT = .7528E-4
MEAN_MOTION_DDOT = 0

CCSDS_OMM_VERS = 2.0
CREATION_DATE  = 
ORIGINATOR     = 

OBJECT_NAME    = TRANSPORTER-15 H
OBJECT_ID      = 2025-276H
CENTER_NAME    = EARTH
REF_FRAME      = TEME
TIME_SYSTEM    = UTC
MEAN_ELEMENT_THEORY = SGP/SGP4

EPOCH          = 2025-12-20T22:10:10.446528
MEAN_MOTION    = 15.17067468
ECCENTRICITY   = .00057838
INCLINATION    = 97.4371
RA_OF_ASC_NODE = 66.5141
ARG_OF_PERICENTER = 277.1860
MEAN_ANOMALY   = 82.8716

EPHEMERIS_TYPE = 0
CLASSIFICATION_TYPE = U
NORAD_CAT_ID   = 66673
ELEMENT_SET_NO = 999
REV_AT_EPOCH   = 336
BSTAR          = .35791298E-3
MEAN_MOTION_DOT = .7024E-4
MEAN_MOTION_DDOT = 0

CCSDS_OMM_VERS = 2.0
CREATION_DATE  = 
ORIGINATOR     = 

OBJECT_NAME    = TRANSPORTER-15 J
OBJECT_ID      = 2025-276J
CENTER_NAME    = EARTH
REF_FRAME      = TEME
TIME_SYSTEM    = UTC
MEAN_ELEMENT_THEORY = SGP/SGP4

EPOCH          = 2025-12-20T15:52:27.796512
MEAN_MOTION    = 15.16718847
ECCENTRICITY   = .00049193
INCLINATION    = 97.4381
RA_OF_ASC_NODE = 66.2572
ARG_OF_PERICENTER = 264.8158
MEAN_ANOMALY   = 95.2514

EPHEMERIS_TYPE = 0
CLASSIFICATION_TYPE = U
NORAD_CAT_ID   = 66674
ELEMENT_SET_NO = 999
REV_AT_EPOCH   = 332
BSTAR          = .25674243E-3
MEAN_MOTION_DOT = .4968E-4
MEAN_MOTION_DDOT = 0

